[{"OBJECT_NAME":"ORESAT0.5","OBJECT_ID":"2024-149BK","EPOCH":"2026-03-09T18:40:03.633312","MEAN_MOTION":15.41150007,"ECCENTRICITY":0.00046191,"INCLINATION":97.3755,"RA_OF_ASC_NODE":153.5378,"ARG_OF_PERICENTER":274.5438,"MEAN_ANOMALY":85.5281,"EPHEMERIS_TYPE":0,"CLASSIFICATION_TYPE":"U","NORAD_CAT_ID":60525,"ELEMENT_SET_NO":999,"REV_AT_EPOCH":8714,"BSTAR":0.00053216303,"MEAN_MOTION_DOT":0.00022009,"MEAN_MOTION_DDOT":0},{"OBJECT_NAME":"STARLINK-36195","OBJECT_ID":"2025-299Y","EPOCH":"2026-03-09T07:55:30.364320","MEAN_MOTION":15.40727297,"ECCENTRICITY":0.00011668,"INCLINATION":43.0011,"RA_OF_ASC_NODE":170.8185,"ARG_OF_PERICENTER":263.7182,"MEAN_ANOMALY":96.3541,"EPHEMERIS_TYPE":0,"CLASSIFICATION_TYPE":"U","NORAD_CAT_ID":67124,"ELEMENT_SET_NO":999,"REV_AT_EPOCH":1306,"BSTAR":0.0012615233,"MEAN_MOTION_DOT":0.00052806,"MEAN_MOTION_DDOT":0}]
